OBJECT_NAME,OBJECT_ID,EPOCH,MEAN_MOTION,ECCENTRICITY,INCLINATION,RA_OF_ASC_NODE,ARG_OF_PERICENTER,MEAN_ANOMALY,EPHEMERIS_TYPE,CLASSIFICATION_TYPE,NORAD_CAT_ID,ELEMENT_SET_NO,REV_AT_EPOCH,BSTAR,MEAN_MOTION_DOT,MEAN_MOTION_DDOT
INTELSAT 23 (IS-23),2012-057A,2026-07-11T01:19:46.738848,1.00264936,.0000731,0.0170,18.8581,226.6244,10.4081,0,U,38867,999,5019,0,-.277E-5,0
FM-6,2013-058A,2026-07-11T04:59:38.474016,1.00269859,.0001298,0.0145,50.0209,126.9585,70.6923,0,U,39360,999,4631,0,-.8E-7,0
INTELSAT 30 (IS-30),2014-062A,2026-07-10T06:18:34.396704,1.00271243,.00012376,0.0192,51.4260,336.2755,260.0814,0,U,40271,999,702,0,-.14E-5,0
DIRECTV 14,2014-078B,2026-07-11T05:52:31.819008,1.00270037,.0000261,0.0101,33.5840,282.0368,322.4257,0,U,40333,999,4228,0,-.118E-5,0
DIRECTV 15,2015-026A,2026-07-11T04:48:38.212992,1.00269791,.0000244,0.0189,71.3102,151.4242,35.6627,0,U,40663,999,4070,0,-.95E-6,0
SKY MEXICO-1,2015-026B,2026-07-11T05:02:09.724992,1.00271142,.0002304,0.0107,27.2233,106.4013,152.2395,0,U,40664,999,4069,0,-.227E-5,0
INTELSAT 34 (IS-34),2015-039A,2026-07-10T01:21:54.642816,1.00270657,.00001224,0.0101,16.1720,324.1781,272.6171,0,U,40874,999,3986,0,-.274E-5,0
INTELSAT 31 (IS-31),2016-035A,2026-07-10T06:18:34.396704,1.00271183,.00010139,0.0186,278.5787,347.5471,21.6525,0,U,41581,999,3691,0,-.14E-5,0
INTELSAT 36 (IS-36),2016-053A,2026-07-10T04:12:21.784032,1.00268599,.00025144,0.0102,354.9716,346.8192,77.8966,0,U,41747,999,3618,0,-.13E-6,0
INTELSAT 32E (IS-32E),2017-007B,2026-07-10T03:08:08.520288,1.00267562,.00003413,0.0258,33.0821,235.9737,22.8541,0,U,41945,999,3445,0,0,0
INTELSAT 35E (IS-35E),2017-041A,2026-07-11T01:25:07.968864,1.00270312,.0001599,0.0035,99.8969,9.2088,166.6588,0,U,42818,999,3305,0,-.23E-5,0
INTELSAT 37E (IS-37E),2017-059A,2026-07-11T04:51:38.851200,1.00270660,.0002502,0.0160,53.8956,63.4931,226.6373,0,U,42950,999,3230,0,-.134E-5,0
AZERSPACE 2 (IS-38),2018-074A,2026-07-11T01:47:43.304064,1.00270608,.0001227,0.0274,36.4567,93.3502,231.2276,0,U,43632,999,2868,0,0,0
HORIZONS-3E,2018-074B,2026-07-10T21:14:42.878400,1.00271701,.0000856,0.0363,221.1947,57.5595,137.7302,0,U,43633,999,2857,0,-.22E-6,0
AT&T T-16,2019-034A,2026-07-11T04:49:45.282720,1.00272187,.0000789,0.0141,66.5634,251.1395,302.9929,0,U,44333,999,2587,0,-.108E-5,0
INTELSAT 39 (IS-39),2019-049B,2026-07-11T01:52:35.337792,1.00270126,.0000917,0.0273,37.2529,284.6695,57.1654,0,U,44476,999,2536,0,0,0
GALAXY 30 (G-30),2020-056C,2026-07-11T05:32:17.642400,1.00270557,.0001942,0.0285,42.6171,72.7748,131.8212,0,U,46114,999,2153,0,0,0
GALAXY 33 (G-33),2022-128A,2026-07-11T04:32:25.838880,1.00270793,.0001782,0.0141,25.2451,93.0323,105.9293,0,U,54026,999,1398,0,.86E-6,0
GALAXY 34 (G-34),2022-128B,2026-07-11T00:58:08.412960,1.00269972,.0001349,0.0112,37.5715,92.1383,44.7761,0,U,54027,999,1415,0,.67E-6,0
GALAXY 31 (G-31),2022-153A,2026-07-11T04:59:38.474016,1.00269986,.0000944,0.0222,52.7781,72.2078,118.0377,0,U,54243,999,737,0,0,0
GALAXY 32 (G-32),2022-153B,2026-07-11T01:08:55.533408,1.00271115,.0001467,0.0113,40.2962,6.0152,168.8832,0,U,54244,999,1338,0,-.166E-5,0
GALAXY 35 (G-35),2022-170A,2026-07-11T04:54:32.065920,1.00269451,.0001866,0.0185,42.3763,73.6082,153.6629,0,U,54741,999,1313,0,0,0
GALAXY 36 (G-36),2022-170B,2026-07-11T04:56:27.180096,1.00271291,.0002389,0.0273,113.9855,345.3606,174.8869,0,U,54742,999,1301,0,-.178E-5,0
GALAXY 37 (G-37),2023-112A,2026-07-11T05:30:09.281376,1.00270564,.0001765,0.0138,64.5810,50.4319,129.6622,0,U,57493,999,1078,0,.55E-6,0
